SL-8 R/B                
1 21088U 91006B   26100.22194646  .00000114  00000+0  99197-4 0  9992
2 21088  82.9423 146.6000 0021180 309.1434 115.6474 13.77500079768415
OKEAN-3                 
1 21397U 91039A   26099.99641770  .00002338  00000+0  16261-3 0  9997
2 21397  82.5158 306.5046 0013432 220.3667 139.6564 15.05000759869746
COSMOS 2151             
1 21422U 91042A   26100.23272083  .00002115  00000+0  16675-3 0  9999
2 21422  82.4966  53.2414 0011199 319.7376  40.3018 15.00255250867927
SL-14 R/B               
1 21423U 91042B   26100.22444391  .00000406  00000+0  48267-4 0  9996
2 21423  82.4960 190.6203 0018160 134.2353 226.0356 14.81863004857741
ERS-1                   
1 21574U 91050A   26100.32456789  .00000313  00000+0  11445-3 0  9991
2 21574  98.7853 119.3513 0033091 107.9838 252.4960 14.39475311820282
ARIANE 40 R/B           
1 21610U 91050F   26100.16159166  .00000288  00000+0  98747-4 0  9995
2 21610  98.1948 151.2067 0002750   4.5237 355.5978 14.42918275823534
INTERCOSMOS 25          
1 21819U 91086A   26100.27166999  .00001104  00000+0  21080-3 0  9992
2 21819  82.5998 290.9109 1486113  48.8795 323.1332 12.12108569500512
SL-8 R/B                
1 21876U 92008B   26099.85408188  .00000045  00000+0  30186-4 0  9991
2 21876  82.9253 244.5909 0035554  49.2498  58.3597 13.75970112713707
SL-8 R/B                
1 21938U 92020B   26100.32350411 -.00000008  00000+0 -23467-4 0  9999
2 21938  82.9281 130.2700 0028405 206.9345 163.3880 13.75550401705480
USA 81                  
1 21949U 92023A   26100.30423621  .00000171  00000+0  55885-4 0  9994
2 21949  85.0035 113.1928 0001331  76.3465 283.7876 14.32378820 99313
COSMOS 2219             
1 22219U 92076A   26100.28240711 -.00000019  00000+0  14599-4 0  9996
2 22219  71.0594 312.0286 0017481 158.2136 201.9734 14.14088129722840
SL-16 R/B               
1 22220U 92076B   26100.31535541  .00000222  00000+0  13467-3 0  9997
2 22220  70.9976 121.7571 0011231  38.9528 331.9826 14.16863688726317
COSMOS 2221             
1 22236U 92080A   26100.20223853  .00002108  00000+0  18363-3 0  9992
2 22236  82.5023 248.8858 0015714  87.6127 272.6894 14.96347383785500
SL-16 R/B               
1 22285U 92093B   26100.25830090 -.00000212  00000+0 -83991-4 0  9998
2 22285  71.0207 297.9962 0006596 262.7705  97.2669 14.15454872717620
COSMOS 2228             
1 22286U 92094A   26100.26426815  .00002086  00000+0  17686-3 0  9993
2 22286  82.5200 207.0810 0017759 191.1647 168.9184 14.97368239780784
SL-16 R/B               
1 22566U 93016B   26100.16056036  .00000217  00000+0  13564-3 0  9997
2 22566  71.0068 149.0872 0012548 274.3450  85.6239 14.15312501706628
COSMOS 2242             
1 22626U 93024A   26100.12653749  .00002417  00000+0  20897-3 0  9994
2 22626  82.5183 236.6394 0015948 194.8943 165.1812 14.96700882785093
