[{"OBJECT_NAME":"SL-8 R/B","OBJECT_ID":"1991-006B","EPOCH":"2026-04-10T05:19:36.174144","MEAN_MOTION":13.77500079,"ECCENTRICITY":0.00211801,"INCLINATION":82.9423,"RA_OF_ASC_NODE":146.6,"ARG_OF_PERICENTER":309.1434,"MEAN_ANOMALY":115.6474,"EPHEMERIS_TYPE":0,"CLASSIFICATION_TYPE":"U","NORAD_CAT_ID":21088,"ELEMENT_SET_NO":999,"REV_AT_EPOCH":76841,"BSTAR":9.9197314e-5,"MEAN_MOTION_DOT":1.14e-6,"MEAN_MOTION_DDOT":0},{"OBJECT_NAME":"OKEAN-3","OBJECT_ID":"1991-039A","EPOCH":"2026-04-09T23:54:50.489280","MEAN_MOTION":15.05000759,"ECCENTRICITY":0.00134327,"INCLINATION":82.5158,"RA_OF_ASC_NODE":306.5046,"ARG_OF_PERICENTER":220.3667,"MEAN_ANOMALY":139.6564,"EPHEMERIS_TYPE":0,"CLASSIFICATION_TYPE":"U","NORAD_CAT_ID":21397,"ELEMENT_SET_NO":999,"REV_AT_EPOCH":86974,"BSTAR":0.00016260562,"MEAN_MOTION_DOT":2.338e-5,"MEAN_MOTION_DDOT":0},{"OBJECT_NAME":"COSMOS 2151","OBJECT_ID":"1991-042A","EPOCH":"2026-04-10T05:35:07.079712","MEAN_MOTION":15.0025525,"ECCENTRICITY":0.00111997,"INCLINATION":82.4966,"RA_OF_ASC_NODE":53.2414,"ARG_OF_PERICENTER":319.7376,"MEAN_ANOMALY":40.3018,"EPHEMERIS_TYPE":0,"CLASSIFICATION_TYPE":"U","NORAD_CAT_ID":21422,"ELEMENT_SET_NO":999,"REV_AT_EPOCH":86792,"BSTAR":0.00016674783,"MEAN_MOTION_DOT":2.115e-5,"MEAN_MOTION_DDOT":0},{"OBJECT_NAME":"SL-14 R/B","OBJECT_ID":"1991-042B","EPOCH":"2026-04-10T05:23:11.953824","MEAN_MOTION":14.81863004,"ECCENTRICITY":0.00181602,"INCLINATION":82.496,"RA_OF_ASC_NODE":190.6203,"ARG_OF_PERICENTER":134.2353,"MEAN_ANOMALY":226.0356,"EPHEMERIS_TYPE":0,"CLASSIFICATION_TYPE":"U","NORAD_CAT_ID":21423,"ELEMENT_SET_NO":999,"REV_AT_EPOCH":85774,"BSTAR":4.8267169e-5,"MEAN_MOTION_DOT":4.06e-6,"MEAN_MOTION_DDOT":0},{"OBJECT_NAME":"ERS-1","OBJECT_ID":"1991-050A","EPOCH":"2026-04-10T07:47:22.665696","MEAN_MOTION":14.39475311,"ECCENTRICITY":0.0033091,"INCLINATION":98.7853,"RA_OF_ASC_NODE":119.3513,"ARG_OF_PERICENTER":107.9838,"MEAN_ANOMALY":252.496,"EPHEMERIS_TYPE":0,"CLASSIFICATION_TYPE":"U","NORAD_CAT_ID":21574,"ELEMENT_SET_NO":999,"REV_AT_EPOCH":82028,"BSTAR":0.00011445209,"MEAN_MOTION_DOT":3.13e-6,"MEAN_MOTION_DDOT":0},{"OBJECT_NAME":"ARIANE 40 R/B","OBJECT_ID":"1991-050F","EPOCH":"2026-04-10T03:52:41.519424","MEAN_MOTION":14.42918275,"ECCENTRICITY":0.00027501,"INCLINATION":98.1948,"RA_OF_ASC_NODE":151.2067,"ARG_OF_PERICENTER":4.5237,"MEAN_ANOMALY":355.5978,"EPHEMERIS_TYPE":0,"CLASSIFICATION_TYPE":"U","NORAD_CAT_ID":21610,"ELEMENT_SET_NO":999,"REV_AT_EPOCH":82353,"BSTAR":9.8747422e-5,"MEAN_MOTION_DOT":2.88e-6,"MEAN_MOTION_DDOT":0},{"OBJECT_NAME":"INTERCOSMOS 25","OBJECT_ID":"1991-086A","EPOCH":"2026-04-10T06:31:12.287136","MEAN_MOTION":12.12108569,"ECCENTRICITY":0.14861131,"INCLINATION":82.5998,"RA_OF_ASC_NODE":290.9109,"ARG_OF_PERICENTER":48.8795,"MEAN_ANOMALY":323.1332,"EPHEMERIS_TYPE":0,"CLASSIFICATION_TYPE":"U","NORAD_CAT_ID":21819,"ELEMENT_SET_NO":999,"REV_AT_EPOCH":50051,"BSTAR":0.00021080189,"MEAN_MOTION_DOT":1.104e-5,"MEAN_MOTION_DDOT":0},{"OBJECT_NAME":"SL-8 R/B","OBJECT_ID":"1992-008B","EPOCH":"2026-04-09T20:29:52.674432","MEAN_MOTION":13.75970112,"ECCENTRICITY":0.0035554,"INCLINATION":82.9253,"RA_OF_ASC_NODE":244.5909,"ARG_OF_PERICENTER":49.2498,"MEAN_ANOMALY":58.3597,"EPHEMERIS_TYPE":0,"CLASSIFICATION_TYPE":"U","NORAD_CAT_ID":21876,"ELEMENT_SET_NO":999,"REV_AT_EPOCH":71370,"BSTAR":3.0186e-5,"MEAN_MOTION_DOT":4.5e-7,"MEAN_MOTION_DDOT":0},{"OBJECT_NAME":"SL-8 R/B","OBJECT_ID":"1992-020B","EPOCH":"2026-04-10T07:45:50.755104","MEAN_MOTION":13.75550401,"ECCENTRICITY":0.00284051,"INCLINATION":82.9281,"RA_OF_ASC_NODE":130.27,"ARG_OF_PERICENTER":206.9345,"MEAN_ANOMALY":163.388,"EPHEMERIS_TYPE":0,"CLASSIFICATION_TYPE":"U","NORAD_CAT_ID":21938,"ELEMENT_SET_NO":999,"REV_AT_EPOCH":70548,"BSTAR":-2.3467087e-5,"MEAN_MOTION_DOT":-8.0e-8,"MEAN_MOTION_DDOT":0},{"OBJECT_NAME":"USA 81","OBJECT_ID":"1992-023A","EPOCH":"2026-04-10T07:18:06.008544","MEAN_MOTION":14.3237882,"ECCENTRICITY":0.00013318,"INCLINATION":85.0035,"RA_OF_ASC_NODE":113.1928,"ARG_OF_PERICENTER":76.3465,"MEAN_ANOMALY":283.7876,"EPHEMERIS_TYPE":0,"CLASSIFICATION_TYPE":"U","NORAD_CAT_ID":21949,"ELEMENT_SET_NO":999,"REV_AT_EPOCH":9931,"BSTAR":5.5885101e-5,"MEAN_MOTION_DOT":1.71e-6,"MEAN_MOTION_DDOT":0},{"OBJECT_NAME":"COSMOS 2219","OBJECT_ID":"1992-076A","EPOCH":"2026-04-10T06:46:39.974304","MEAN_MOTION":14.14088129,"ECCENTRICITY":0.00174812,"INCLINATION":71.0594,"RA_OF_ASC_NODE":312.0286,"ARG_OF_PERICENTER":158.2136,"MEAN_ANOMALY":201.9734,"EPHEMERIS_TYPE":0,"CLASSIFICATION_TYPE":"U","NORAD_CAT_ID":22219,"ELEMENT_SET_NO":999,"REV_AT_EPOCH":72284,"BSTAR":1.4598646e-5,"MEAN_MOTION_DOT":-1.9e-7,"MEAN_MOTION_DDOT":0},{"OBJECT_NAME":"SL-16 R/B","OBJECT_ID":"1992-076B","EPOCH":"2026-04-10T07:34:06.707424","MEAN_MOTION":14.16863688,"ECCENTRICITY":0.00112313,"INCLINATION":70.9976,"RA_OF_ASC_NODE":121.7571,"ARG_OF_PERICENTER":38.9528,"MEAN_ANOMALY":331.9826,"EPHEMERIS_TYPE":0,"CLASSIFICATION_TYPE":"U","NORAD_CAT_ID":22220,"ELEMENT_SET_NO":999,"REV_AT_EPOCH":72631,"BSTAR":0.00013466666,"MEAN_MOTION_DOT":2.22e-6,"MEAN_MOTION_DDOT":0},{"OBJECT_NAME":"COSMOS 2221","OBJECT_ID":"1992-080A","EPOCH":"2026-04-10T04:51:13.408992","MEAN_MOTION":14.96347383,"ECCENTRICITY":0.00157147,"INCLINATION":82.5023,"RA_OF_ASC_NODE":248.8858,"ARG_OF_PERICENTER":87.6127,"MEAN_ANOMALY":272.6894,"EPHEMERIS_TYPE":0,"CLASSIFICATION_TYPE":"U","NORAD_CAT_ID":22236,"ELEMENT_SET_NO":999,"REV_AT_EPOCH":78550,"BSTAR":0.00018363443,"MEAN_MOTION_DOT":2.108e-5,"MEAN_MOTION_DDOT":0},{"OBJECT_NAME":"SL-16 R/B","OBJECT_ID":"1992-093B","EPOCH":"2026-04-10T06:11:57.197760","MEAN_MOTION":14.15454872,"ECCENTRICITY":0.00065966,"INCLINATION":71.0207,"RA_OF_ASC_NODE":297.9962,"ARG_OF_PERICENTER":262.7705,"MEAN_ANOMALY":97.2669,"EPHEMERIS_TYPE":0,"CLASSIFICATION_TYPE":"U","NORAD_CAT_ID":22285,"ELEMENT_SET_NO":999,"REV_AT_EPOCH":71762,"BSTAR":-8.3990796e-5,"MEAN_MOTION_DOT":-2.12e-6,"MEAN_MOTION_DDOT":0},{"OBJECT_NAME":"COSMOS 2228","OBJECT_ID":"1992-094A","EPOCH":"2026-04-10T06:20:32.768160","MEAN_MOTION":14.97368239,"ECCENTRICITY":0.00177592,"INCLINATION":82.52,"RA_OF_ASC_NODE":207.081,"ARG_OF_PERICENTER":191.1647,"MEAN_ANOMALY":168.9184,"EPHEMERIS_TYPE":0,"CLASSIFICATION_TYPE":"U","NORAD_CAT_ID":22286,"ELEMENT_SET_NO":999,"REV_AT_EPOCH":78078,"BSTAR":0.00017685934,"MEAN_MOTION_DOT":2.086e-5,"MEAN_MOTION_DDOT":0},{"OBJECT_NAME":"SL-16 R/B","OBJECT_ID":"1993-016B","EPOCH":"2026-04-10T03:51:12.415104","MEAN_MOTION":14.15312501,"ECCENTRICITY":0.00125485,"INCLINATION":71.0068,"RA_OF_ASC_NODE":149.0872,"ARG_OF_PERICENTER":274.345,"MEAN_ANOMALY":85.6239,"EPHEMERIS_TYPE":0,"CLASSIFICATION_TYPE":"U","NORAD_CAT_ID":22566,"ELEMENT_SET_NO":999,"REV_AT_EPOCH":70662,"BSTAR":0.0001356443,"MEAN_MOTION_DOT":2.17e-6,"MEAN_MOTION_DDOT":0},{"OBJECT_NAME":"COSMOS 2242","OBJECT_ID":"1993-024A","EPOCH":"2026-04-10T03:02:12.839136","MEAN_MOTION":14.96700882,"ECCENTRICITY":0.00159487,"INCLINATION":82.5183,"RA_OF_ASC_NODE":236.6394,"ARG_OF_PERICENTER":194.8943,"MEAN_ANOMALY":165.1812,"EPHEMERIS_TYPE":0,"CLASSIFICATION_TYPE":"U","NORAD_CAT_ID":22626,"ELEMENT_SET_NO":999,"REV_AT_EPOCH":78509,"BSTAR":0.00020896873,"MEAN_MOTION_DOT":2.417e-5,"MEAN_MOTION_DDOT":0}]
